0 FENGYUN 3A
1 32958U 08026A   13282.31918876  .00000047  00000-0  42824-4 0  3339
2 32958 098.5935 344.1600 0008738 218.0103 142.0453 14.19371482278250
0 FENGYUN 3A
1 32958U 08026A   13282.81264414  .00000023  00000-0  31230-4 0  3340
2 32958 098.5933 344.6383 0008774 216.8194 143.2356 14.19371250278323
0 FENGYUN 3A
1 32958U 08026A   13283.16511259  .00000035  00000-0  36955-4 0  3354
2 32958 098.5929 344.9800 0008792 215.6939 144.3663 14.19371477278378
0 FENGYUN 3A
1 32958U 08026A   13283.30609957  .00000036  00000-0  37168-4 0  3362
2 32958 098.5929 345.1168 0008794 215.3209 144.7387 14.19371509278392
0 FENGYUN 3A
1 32958U 08026A   13283.72906109  .00000035  00000-0  36857-4 0  3360
2 32958 098.5927 345.5266 0008819 213.8995 146.1619 14.19371593278450
0 FENGYUN 3A
1 32958U 08026A   13283.94054213  .00000032  00000-0  35276-4 0  3376
2 32958 098.5928 345.7319 0008873 213.0383 147.0247 14.19371549278486
0 FENGYUN 3A
1 32958U 08026A   13284.29300981  .00000034  00000-0  36221-4 0  3385
2 32958 098.5928 346.0739 0008898 211.9735 148.0903 14.19371658278538
0 FENGYUN 3A
1 32958U 08026A   13285.35041316  .00000050  00000-0  44179-4 0  3410
2 32958 098.5928 347.0997 0008984 208.6839 151.3850 14.19372073278685
0 FENGYUN 3A
1 32958U 08026A   13285.77337437  .00000058  00000-0  47933-4 0  3428
2 32958 098.5927 347.5097 0009029 206.9421 153.1292 14.19372269278743
0 FENGYUN 3A
1 32958U 08026A   13286.12584223  .00000079  00000-0  58007-4 0  3433
2 32958 098.5925 347.8516 0009076 205.9872 154.0878 14.19372591278794
0 FENGYUN 3A
1 32958U 08026A   13286.40781604  .00000074  00000-0  55580-4 0  3445
2 32958 098.5926 348.1252 0009085 205.0741 154.9996 14.19372593278839
0 FENGYUN 3A
1 32958U 08026A   13286.76028371  .00000075  00000-0  55872-4 0  3455
2 32958 098.5925 348.4669 0009112 203.8703 156.2047 14.19372679278880
0 FENGYUN 3A
1 32958U 08026A   13287.18324507  .00000072  00000-0  54649-4 0  3461
2 32958 098.5922 348.8771 0009105 202.7610 157.3160 14.19372765278943
0 FENGYUN 3A
1 32958U 08026A   13287.32423225  .00000072  00000-0  54483-4 0  3471
2 32958 098.5921 349.0138 0009108 202.2869 157.7909 14.19372793278964
0 FENGYUN 3A
1 32958U 08026A   13287.81768736  .00000041  00000-0  39976-4 0  3481
2 32958 098.5920 349.4921 0009174 200.7171 159.3611 14.19372513279036
0 FENGYUN 3A
1 32958U 08026A   13288.17015546  .00000051  00000-0  44545-4 0  3495
2 32958 098.5917 349.8339 0009190 199.9134 160.1695 14.19372713279084
0 FENGYUN 3A
1 32958U 08026A   13288.52262308  .00000054  00000-0  46044-4 0  3505
2 32958 098.5920 350.1760 0009191 198.8346 161.2503 14.19372848279130
0 FENGYUN 3A
1 32958U 08026A   13288.80459708  .00000051  00000-0  44605-4 0  3517
2 32958 098.5920 350.4495 0009213 197.8799 162.2050 14.19372859279178
0 FENGYUN 3A
1 32958U 08026A   13289.15706508  .00000052  00000-0  44928-4 0  3529
2 32958 098.5919 350.7912 0009237 196.7099 163.3774 14.19372897279223
0 FENGYUN 3A
1 32958U 08026A   13289.50953249  .00000071  00000-0  53811-4 0  3537
2 32958 098.5919 351.1329 0009264 195.6727 164.4181 14.19373242279270
0 FENGYUN 3A
1 32958U 08026A   13289.86199985  .00000062  00000-0  49802-4 0  3541
2 32958 098.5920 351.4747 0009276 194.5463 165.5431 14.19373183279327
0 FENGYUN 3A
1 32958U 08026A   13290.14397422  .00000071  00000-0  54140-4 0  3552
2 32958 098.5918 351.7482 0009306 193.7057 166.3871 14.19373342279365
0 FENGYUN 3A
1 32958U 08026A   13290.28496123  .00000077  00000-0  56722-4 0  3560
2 32958 098.5915 351.8850 0009305 193.3475 166.7470 14.19373475279389
0 FENGYUN 3A
1 32958U 08026A   13290.70792193  .00000084  00000-0  60076-4 0  3579
2 32958 098.5916 352.2953 0009309 191.9656 168.1301 14.19373678279449
0 FENGYUN 3A
1 32958U 08026A   13290.84890894  .00000083  00000-0  59914-4 0  3580
2 32958 098.5916 352.4321 0009301 191.2929 168.8027 14.19373668279461
0 FENGYUN 3A
1 32958U 08026A   13291.20137672  .00000085  00000-0  60545-4 0  3594
2 32958 098.5916 352.7741 0009299 190.3218 169.7777 14.19373810279514
0 FENGYUN 3A
1 32958U 08026A   13291.48335056  .00000088  00000-0  62150-4 0  3609
2 32958 098.5918 353.0478 0009343 189.3245 170.7763 14.19373919279556
0 FENGYUN 3A
1 32958U 08026A   13291.83581798  .00000086  00000-0  61311-4 0  3611
2 32958 098.5918 353.3899 0009345 188.3498 171.7517 14.19373964279601
0 FENGYUN 3A
1 32958U 08026A   13292.18828573  .00000075  00000-0  56009-4 0  3622
2 32958 098.5916 353.7318 0009322 187.2755 172.8284 14.19373949279659
0 FENGYUN 3A
1 32958U 08026A   13292.47025980  .00000065  00000-0  51044-4 0  3639
2 32958 098.5925 354.0059 0009419 186.1884 173.9179 14.19373908279697
0 FENGYUN 3A
1 32958U 08026A   13292.82272727  .00000057  00000-0  47498-4 0  3641
2 32958 098.5923 354.3477 0009382 185.3773 174.7286 14.19373859279748
0 FENGYUN 3A
1 32958U 08026A   13293.17519527  .00000047  00000-0  42577-4 0  3655
2 32958 098.5924 354.6898 0009367 184.3440 175.7657 14.19373825279793
0 FENGYUN 3A
1 32958U 08026A   13293.45716914  .00000050  00000-0  43950-4 0  3666
2 32958 098.5926 354.9636 0009412 183.4203 176.6913 14.19373935279838
0 FENGYUN 3A
1 32958U 08026A   13293.80963665  .00000038  00000-0  38104-4 0  3674
2 32958 098.5926 355.3054 0009444 182.4187 177.6939 14.19373858279880
0 FENGYUN 3A
1 32958U 08026A   13294.16210436  .00000042  00000-0  40310-4 0  3683
2 32958 098.5926 355.6473 0009461 181.4221 178.6937 14.19373961279935
0 FENGYUN 3A
1 32958U 08026A   13294.51457156  .00000054  00000-0  45996-4 0  3693
2 32958 098.5924 355.9890 0009480 180.3743 179.7436 14.19374191279984
0 FENGYUN 3A
1 32958U 08026A   13294.86703885  .00000059  00000-0  48273-4 0  3702
2 32958 098.5927 356.3313 0009437 179.2552 180.8631 14.19374267280031
0 FENGYUN 3A
1 32958U 08026A   13295.14901295  .00000064  00000-0  50718-4 0  3713
2 32958 098.5926 356.6049 0009442 178.4746 181.6472 14.19374418280075
0 FENGYUN 3A
1 32958U 08026A   13295.28999969  .00000071  00000-0  54046-4 0  3720
2 32958 098.5927 356.7417 0009473 178.1129 182.0097 14.19374544280092
0 FENGYUN 3A
1 32958U 08026A   13295.78345377  .00000076  00000-0  56529-4 0  3737
2 32958 098.5925 357.2202 0009490 176.6026 183.5220 14.19374722280166
0 FENGYUN 3A
1 32958U 08026A   13296.13592107  .00000098  00000-0  67061-4 0  3740
2 32958 098.5924 357.5624 0009431 175.7999 184.3287 14.19375085280211
